[{"OBJECT_NAME":"STARLINK-32581","OBJECT_ID":"2024-225X","EPOCH":"2026-03-09T15:59:39.574464","MEAN_MOTION":14.98344725,"ECCENTRICITY":0.0002705,"INCLINATION":70.0041,"RA_OF_ASC_NODE":154.425,"ARG_OF_PERICENTER":271.8979,"MEAN_ANOMALY":88.187,"EPHEMERIS_TYPE":0,"CLASSIFICATION_TYPE":"U","NORAD_CAT_ID":62184,"ELEMENT_SET_NO":999,"REV_AT_EPOCH":7012,"BSTAR":0.00085492706,"MEAN_MOTION_DOT":0.00010126,"MEAN_MOTION_DDOT":0},{"OBJECT_NAME":"ICEYE-X48","OBJECT_ID":"2025-052AV","EPOCH":"2026-03-09T16:59:01.566528","MEAN_MOTION":14.97356709,"ECCENTRICITY":0.00026878,"INCLINATION":97.6979,"RA_OF_ASC_NODE":322.3976,"ARG_OF_PERICENTER":141.7433,"MEAN_ANOMALY":218.398,"EPHEMERIS_TYPE":0,"CLASSIFICATION_TYPE":"U","NORAD_CAT_ID":63253,"ELEMENT_SET_NO":999,"REV_AT_EPOCH":5378,"BSTAR":0.00039588576,"MEAN_MOTION_DOT":4.541e-5,"MEAN_MOTION_DDOT":0}]
